{"type": "FeatureCollection", "features": [ {"type": "Feature", "properties": {"norad_id": 30703, "name": "FENGYUN 1C DEB", "group": "fengyun-1c-debris", "lat": 69.08087601180304, "lon": -40.805837486513525, "alt_km": 904.4599161045953, "timestamp": "2025-12-24T16:52:41.810273+00:00", "meta": {"OBJECT_NAME": "FENGYUN 1C DEB", "OBJECT_ID": "1999-025ARM", "EPOCH": "2025-12-23T22:04:08.028768", "MEAN_MOTION": 14.1937373, "ECCENTRICITY": 0.0117076, "INCLINATION": 99.1434, "RA_OF_ASC_NODE": 343.3044, "ARG_OF_PERICENTER": 260.2492, "MEAN_ANOMALY": 128.3189, "EPHEMERIS_TYPE": 0, "CLASSIFICATION_TYPE": "U", "NORAD_CAT_ID": 30703, "ELEMENT_SET_NO": 999, "REV_AT_EPOCH": 96699, "BSTAR": 0.00097676, "MEAN_MOTION_DOT": 2.15e-05, "MEAN_MOTION_DDOT": 0}, "tle": {"line1": "1 30703U 99025ARM 25357.91953737  .00002150  00000+0  97676-3 0  9999", "line2": "2 30703  99.1434 343.3044 0117076 260.2492 128.3189 14.19373730966992"}}, "geometry": {"type": "Point", "coordinates": [-40.805837486513525, 69.08087601180304]}}, {"type": "Feature", "properties": {"norad_id": 30704, "name": "FENGYUN 1C DEB", "group": "fengyun-1c-debris", "lat": -11.461296171241052, "lon": -1.0618136429412033, "alt_km": 878.2192572851745, "timestamp": "2025-12-24T16:52:41.810283+00:00", "meta": {"OBJECT_NAME": "FENGYUN 1C DEB", "OBJECT_ID": "1999-025ARN", "EPOCH": "2025-12-23T00:07:20.038656", "MEAN_MOTION": 14.02062149, "ECCENTRICITY": 0.00819851, "INCLINATION": 98.8737, "RA_OF_ASC_NODE": 355.4703, "ARG_OF_PERICENTER": 71.3983, "MEAN_ANOMALY": 351.378, "EPHEMERIS_TYPE": 0, "CLASSIFICATION_TYPE": "U", "NORAD_CAT_ID": 30704, "ELEMENT_SET_NO": 999, "REV_AT_EPOCH": 96255, "BSTAR": 0.00035160043, "MEAN_MOTION_DOT": 5.1e-06, "MEAN_MOTION_DDOT": 0}, "tle": {"line1": "1 30704U 99025ARN 25357.00509304  .00000510  00000+0  35160-3 0  9995", "line2": "2 30704  98.8737 355.4703 0081985  71.3983 351.3780 14.02062149962550"}}, "geometry": {"type": "Point", "coordinates": [-1.0618136429412033, -11.461296171241052]}}, {"type": "Feature", "properties": {"norad_id": 30705, "name": "FENGYUN 1C DEB", "group": "fengyun-1c-debris", "lat": -55.45221071414127, "lon": -91.96635940174686, "alt_km": 824.2183024601527, "timestamp": "2025-12-24T16:52:41.810294+00:00", "meta": {"OBJECT_NAME": "FENGYUN 1C DEB", "OBJECT_ID": "1999-025ARP", "EPOCH": "2025-12-22T02:01:00.450336", "MEAN_MOTION": 13.81369006, "ECCENTRICITY": 0.02010028, "INCLINATION": 102.1802, "RA_OF_ASC_NODE": 102.9448, "ARG_OF_PERICENTER": 260.0926, "MEAN_ANOMALY": 278.8212, "EPHEMERIS_TYPE": 0, "CLASSIFICATION_TYPE": "U", "NORAD_CAT_ID": 30705, "ELEMENT_SET_NO": 999, "REV_AT_EPOCH": 94138, "BSTAR": 0.0022077512, "MEAN_MOTION_DOT": 2.668e-05, "MEAN_MOTION_DDOT": 0}, "tle": {"line1": "1 30705U 99025ARP 25356.08403299  .00002668  00000+0  22078-2 0  9998", "line2": "2 30705 102.1802 102.9448 0201002 260.0926 278.8212 13.81369006941381"}}, "geometry": {"type": "Point", "coordinates": [-91.96635940174686, -55.45221071414127]}}, {"type": "Feature", "properties": {"norad_id": 30706, "name": "FENGYUN 1C DEB", "group": "fengyun-1c-debris", "lat": -47.07585274446913, "lon": -96.38375280202636, "alt_km": 825.5942981475146, "timestamp": "2025-12-24T16:52:41.810304+00:00", "meta": {"OBJECT_NAME": "FENGYUN 1C DEB", "OBJECT_ID": "1999-025ARQ", "EPOCH": "2025-12-23T04:04:02.957952", "MEAN_MOTION": 14.2646413, "ECCENTRICITY": 0.00270864, "INCLINATION": 99.0659, "RA_OF_ASC_NODE": 252.1437, "ARG_OF_PERICENTER": 98.5329, "MEAN_ANOMALY": 261.8921, "EPHEMERIS_TYPE": 0, "CLASSIFICATION_TYPE": "U", "NORAD_CAT_ID": 30706, "ELEMENT_SET_NO": 999, "REV_AT_EPOCH": 97776, "BSTAR": 0.00078252023, "MEAN_MOTION_DOT": 1.845e-05, "MEAN_MOTION_DDOT": 0}, "tle": {"line1": "1 30706U 99025ARQ 25357.16947868  .00001845  00000+0  78252-3 0  9996", "line2": "2 30706  99.0659 252.1437 0027086  98.5329 261.8921 14.26464130977765"}}, "geometry": {"type": "Point", "coordinates": [-96.38375280202636, -47.07585274446913]}}, {"type": "Feature", "properties": {"norad_id": 30707, "name": "FENGYUN 1C DEB", "group": "fengyun-1c-debris", "lat": -15.846719169417497, "lon": -128.72561658137025, "alt_km": 825.615363023162, "timestamp": "2025-12-24T16:52:41.810315+00:00", "meta": {"OBJECT_NAME": "FENGYUN 1C DEB", "OBJECT_ID": "1999-025ARR", "EPOCH": "2025-12-23T20:03:55.417248", "MEAN_MOTION": 14.26757696, "ECCENTRICITY": 0.0027046, "INCLINATION": 99.4117, "RA_OF_ASC_NODE": 53.0411, "ARG_OF_PERICENTER": 37.6812, "MEAN_ANOMALY": 26.3892, "EPHEMERIS_TYPE": 0, "CLASSIFICATION_TYPE": "U", "NORAD_CAT_ID": 30707, "ELEMENT_SET_NO": 999, "REV_AT_EPOCH": 96961, "BSTAR": 0.0014639, "MEAN_MOTION_DOT": 3.51e-05, "MEAN_MOTION_DDOT": 0}, "tle": {"line1": "1 30707U 99025ARR 25357.83605807  .00003510  00000+0  14639-2 0  9994", "line2": "2 30707  99.4117  53.0411 0027046  37.6812  26.3892 14.26757696969614"}}, "geometry": {"type": "Point", "coordinates": [-128.72561658137025, -15.846719169417497]}}, {"type": "Feature", "properties": {"norad_id": 30708, "name": "FENGYUN 1C DEB", "group": "fengyun-1c-debris", "lat": -7.244805084233619, "lon": 13.08701358734767, "alt_km": 861.7988245824417, "timestamp": "2025-12-24T16:52:41.810325+00:00", "meta": {"OBJECT_NAME": "FENGYUN 1C DEB", "OBJECT_ID": "1999-025ARS", "EPOCH": "2025-12-24T00:10:01.687008", "MEAN_MOTION": 14.12185438, "ECCENTRICITY": 0.00086201, "INCLINATION": 98.6899, "RA_OF_ASC_NODE": 11.2981, "ARG_OF_PERICENTER": 162.7932, "MEAN_ANOMALY": 252.1108, "EPHEMERIS_TYPE": 0, "CLASSIFICATION_TYPE": "U", "NORAD_CAT_ID": 30708, "ELEMENT_SET_NO": 999, "REV_AT_EPOCH": 96995, "BSTAR": 0.00013569108, "MEAN_MOTION_DOT": 2.07e-06, "MEAN_MOTION_DDOT": 0}, "tle": {"line1": "1 30708U 99025ARS 25358.00696397  .00000207  00000+0  13569-3 0  9991", "line2": "2 30708  98.6899  11.2981 0008620 162.7932 252.1108 14.12185438969951"}}, "geometry": {"type": "Point", "coordinates": [13.08701358734767, -7.244805084233619]}}, {"type": "Feature", "properties": {"norad_id": 30709, "name": "FENGYUN 1C DEB", "group": "fengyun-1c-debris", "lat": -69.59795968406799, "lon": 131.34040388389363, "alt_km": 784.0204316027111, "timestamp": "2025-12-24T16:52:41.810335+00:00", "meta": {"OBJECT_NAME": "FENGYUN 1C DEB", "OBJECT_ID": "1999-025ART", "EPOCH": "2025-12-24T03:50:04.156512", "MEAN_MOTION": 14.17584955, "ECCENTRICITY": 0.00816243, "INCLINATION": 99.1456, "RA_OF_ASC_NODE": 336.4468, "ARG_OF_PERICENTER": 237.5375, "MEAN_ANOMALY": 121.7888, "EPHEMERIS_TYPE": 0, "CLASSIFICATION_TYPE": "U", "NORAD_CAT_ID": 30709, "ELEMENT_SET_NO": 999, "REV_AT_EPOCH": 96158, "BSTAR": 0.0024515718, "MEAN_MOTION_DOT": 5.103e-05, "MEAN_MOTION_DDOT": 0}, "tle": {"line1": "1 30709U 99025ART 25358.15977033  .00005103  00000+0  24516-2 0  9990", "line2": "2 30709  99.1456 336.4468 0081624 237.5375 121.7888 14.17584955961585"}}, "geometry": {"type": "Point", "coordinates": [131.34040388389363, -69.59795968406799]}}, {"type": "Feature", "properties": {"norad_id": 30710, "name": "FENGYUN 1C DEB", "group": "fengyun-1c-debris", "lat": -26.992918508364664, "lon": 65.78393083462424, "alt_km": 1064.3798429829885, "timestamp": "2025-12-24T16:52:41.810346+00:00", "meta": {"OBJECT_NAME": "FENGYUN 1C DEB", "OBJECT_ID": "1999-025ARU", "EPOCH": "2025-12-23T11:28:33.077568", "MEAN_MOTION": 13.94234208, "ECCENTRICITY": 0.02250498, "INCLINATION": 102.7468, "RA_OF_ASC_NODE": 250.7198, "ARG_OF_PERICENTER": 57.7905, "MEAN_ANOMALY": 122.427, "EPHEMERIS_TYPE": 0, "CLASSIFICATION_TYPE": "U", "NORAD_CAT_ID": 30710, "ELEMENT_SET_NO": 999, "REV_AT_EPOCH": 94938, "BSTAR": 0.0028696498, "MEAN_MOTION_DOT": 4.633e-05, "MEAN_MOTION_DDOT": 0}, "tle": {"line1": "1 30710U 99025ARU 25357.47816062  .00004633  00000+0  28696-2 0  9990", "line2": "2 30710 102.7468 250.7198 0225049  57.7905 122.4270 13.94234208949385"}}, "geometry": {"type": "Point", "coordinates": [65.78393083462424, -26.992918508364664]}}, {"type": "Feature", "properties": {"norad_id": 30714, "name": "FENGYUN 1C DEB", "group": "fengyun-1c-debris", "lat": -38.6634590548307, "lon": -140.26496461620255, "alt_km": 846.3662494461096, "timestamp": "2025-12-24T16:52:41.810357+00:00", "meta": {"OBJECT_NAME": "FENGYUN 1C DEB", "OBJECT_ID": "1999-025ARY", "EPOCH": "2025-12-23T19:36:33.411168", "MEAN_MOTION": 14.03305033, "ECCENTRICITY": 0.00670196, "INCLINATION": 98.8346, "RA_OF_ASC_NODE": 46.0227, "ARG_OF_PERICENTER": 251.2209, "MEAN_ANOMALY": 173.7158, "EPHEMERIS_TYPE": 0, "CLASSIFICATION_TYPE": "U", "NORAD_CAT_ID": 30714, "ELEMENT_SET_NO": 999, "REV_AT_EPOCH": 96148, "BSTAR": 0.0003584466, "MEAN_MOTION_DOT": 5.27e-06, "MEAN_MOTION_DDOT": 0}, "tle": {"line1": "1 30714U 99025ARY 25357.81705337  .00000527  00000+0  35845-3 0  9997", "line2": "2 30714  98.8346  46.0227 0067019 251.2209 173.7158 14.03305033961482"}}, "geometry": {"type": "Point", "coordinates": [-140.26496461620255, -38.6634590548307]}}, {"type": "Feature", "properties": {"norad_id": 30715, "name": "FENGYUN 1C DEB", "group": "fengyun-1c-debris", "lat": -35.31968343845509, "lon": -118.49878970093326, "alt_km": 841.0571012951741, "timestamp": "2025-12-24T16:52:41.810366+00:00", "meta": {"OBJECT_NAME": "FENGYUN 1C DEB", "OBJECT_ID": "1999-025ARZ", "EPOCH": "2025-12-24T03:59:11.491872", "MEAN_MOTION": 14.14769929, "ECCENTRICITY": 0.00674221, "INCLINATION": 98.9754, "RA_OF_ASC_NODE": 67.3909, "ARG_OF_PERICENTER": 136.598, "MEAN_ANOMALY": 224.0529, "EPHEMERIS_TYPE": 0, "CLASSIFICATION_TYPE": "U", "NORAD_CAT_ID": 30715, "ELEMENT_SET_NO": 999, "REV_AT_EPOCH": 96343, "BSTAR": 0.0017492415, "MEAN_MOTION_DOT": 3.402e-05, "MEAN_MOTION_DDOT": 0}, "tle": {"line1": "1 30715U 99025ARZ 25358.16610523  .00003402  00000+0  17492-2 0  9991", "line2": "2 30715  98.9754  67.3909 0067422 136.5980 224.0529 14.14769929963438"}}, "geometry": {"type": "Point", "coordinates": [-118.49878970093326, -35.31968343845509]}}]}